[{"OBJECT_NAME":"OBJECT DM","OBJECT_ID":"2025-009DM","EPOCH":"2026-03-09T18:02:25.223712","MEAN_MOTION":15.64307433,"ECCENTRICITY":0.00035565,"INCLINATION":97.4062,"RA_OF_ASC_NODE":158.7126,"ARG_OF_PERICENTER":233.4448,"MEAN_ANOMALY":126.6484,"EPHEMERIS_TYPE":0,"CLASSIFICATION_TYPE":"U","NORAD_CAT_ID":63002,"ELEMENT_SET_NO":999,"REV_AT_EPOCH":12182,"BSTAR":0.0018891728,"MEAN_MOTION_DOT":0.00183902,"MEAN_MOTION_DDOT":0},{"OBJECT_NAME":"STARLINK-36281","OBJECT_ID":"2026-018S","EPOCH":"2026-03-09T22:00:01.999584","MEAN_MOTION":15.67656978,"ECCENTRICITY":0.0001832,"INCLINATION":97.2841,"RA_OF_ASC_NODE":134.8252,"ARG_OF_PERICENTER":80.2568,"MEAN_ANOMALY":121.7467,"EPHEMERIS_TYPE":0,"CLASSIFICATION_TYPE":"U","NORAD_CAT_ID":67605,"ELEMENT_SET_NO":999,"REV_AT_EPOCH":603,"BSTAR":-0.02025557,"MEAN_MOTION_DOT":-0.0195094,"MEAN_MOTION_DDOT":0}]
